{
  "norad_id": 53828,
  "name": "STARLINK-4760",
  "history": [
    {
      "epoch": "2026-03-28T20:08:26.375424",
      "apogee_km": 540.6474004860038,
      "perigee_km": 538.81969908675,
      "latitude_deg": 34.345731864261516,
      "longitude_deg": 3.3626393598970026,
      "semi_major_axis_km": 6917.870549786377,
      "eccentricity": 0.0001321,
      "inclination_deg": 53.217,
      "raan_deg": 218.0607,
      "arg_perigee_deg": 84.0965,
      "mean_anomaly_deg": 276.0178,
      "mean_motion_rev_day": 15.08843219
    }
  ]
}