{"fetched_at":"2026-03-29T16:36:15Z","count":15609,"tles":[{"name":"STARLINK-4760","line1":"1 53828U 22114L   26087.83919416  .00001287  00000+0  98919-4 0  9997","line2":"2 53828  53.2170 218.0607 0001321  84.0965 276.0178 15.08843219195725","category":"Starlink"}]}